COMMENT,ORIGINATOR,NORAD_CAT_ID,OBJECT_NAME,OBJECT_TYPE,CLASSIFICATION_TYPE,INTLDES,EPOCH,EPOCH_MICROSECONDS,MEAN_MOTION,ECCENTRICITY,INCLINATION,RA_OF_ASC_NODE,ARG_OF_PERICENTER,MEAN_ANOMALY,EPHEMERIS_TYPE,ELEMENT_SET_NO,REV_AT_EPOCH,BSTAR,MEAN_MOTION_DOT,MEAN_MOTION_DDOT,FILE,TLE_LINE0,TLE_LINE1,TLE_LINE2,OBJECT_ID,OBJECT_NUMBER,SEMIMAJOR_AXIS,PERIOD,APOGEE,PERIGEE,DECAYED
GENERATED VIA SPACETRACK.ORG API,18 SPCS,51976,STARLINK-3663,PAYLOAD,U,22025W,2024-09-29 04:34:08,115744,15.09379597,0.0001348,53.2148,242.4801,107.1412,252.9728,0,999,14269,0.0025418,0.00041005,0.0,4509134,0 STARLINK-3663,1 51976U 22025W   24273.19037171  .00041005  00000-0  25418-2 0  9998,2 51976  53.2148 242.4801 0001348 107.1412 252.9728 15.09379597142698,2022-025W,51976,6916.232,95.403,539.029,537.164,0
GENERATED VIA SPACETRACK.ORG API,18 SPCS,51976,STARLINK-3663,PAYLOAD,U,22025W,2024-09-29 04:34:08,115744,15.09379597,0.0001348,53.2148,242.4801,107.1412,252.9728,0,999,14158,0.0025418,0.00041005,0.0,4509172,0 STARLINK-3663,1 51976U 22025W   24273.19037171  .00041005  00000-0  25418-2 0  9998,2 51976  53.2148 242.4801 0001348 107.1412 252.9728 15.09379597141585,2022-025W,51976,6916.232,95.403,539.029,537.164,0
GENERATED VIA SPACETRACK.ORG API,18 SPCS,51976,STARLINK-3663,PAYLOAD,U,22025W,2024-09-29 15:41:35,65248,15.09424494,0.000136,53.215,240.3973,109.1028,251.0112,0,999,14165,0.0028413,0.00045959,0.0,4509473,0 STARLINK-3663,1 51976U 22025W   24273.65387807  .00045959  00000-0  28413-2 0  9993,2 51976  53.2150 240.3973 0001360 109.1028 251.0112 15.09424494141656,2022-025W,51976,6916.094,95.401,538.9,537.019,0
GENERATED VIA SPACETRACK.ORG API,18 SPCS,51976,STARLINK-3663,PAYLOAD,U,22025W,2024-09-30 04:24:21,353472,15.09486128,0.0001323,53.2151,238.0172,108.9848,251.1288,0,999,14284,0.0033861,0.00054991,0.0,4509789,0 STARLINK-3663,1 51976U 22025W   24274.18358048  .00054991  00000-0  33861-2 0  9996,2 51976  53.2151 238.0172 0001323 108.9848 251.1288 15.09486128142847,2022-025W,51976,6915.906,95.397,538.686,536.856,0
GENERATED VIA SPACETRACK.ORG API,18 SPCS,51976,STARLINK-3663,PAYLOAD,U,22025W,2024-09-30 07:35:02,657472,15.09499781,0.0001321,53.2153,237.4218,109.7845,250.329,0,999,14175,0.003344,0.00054319,0.0,4510156,0 STARLINK-3663,1 51976U 22025W   24274.31600298  .00054319  00000-0  33440-2 0  9995,2 51976  53.2153 237.4218 0001321 109.7845 250.3290 15.09499781141759,2022-025W,51976,6915.864,95.396,538.643,536.816,0
GENERATED VIA SPACETRACK.ORG API,18 SPCS,51976,STARLINK-3663,PAYLOAD,U,22025W,2024-10-01 05:49:48,670752,15.09604096,0.0001329,53.2161,233.2557,118.0433,242.0694,0,999,14300,0.0034261,0.00055831,0.0,4511161,0 STARLINK-3663,1 51976U 22025W   24275.24292443  .00055831  00000-0  34261-2 0  9999,2 51976  53.2161 233.2557 0001329 118.0433 242.0694 15.09604096143005,2022-025W,51976,6915.546,95.389,538.33,536.492,0
GENERATED VIA SPACETRACK.ORG API,18 SPCS,51976,STARLINK-3663,PAYLOAD,U,22025W,2024-10-01 13:46:29,449344,15.09641088,0.0001338,53.2162,231.7682,118.9731,241.1395,0,999,14194,0.0031852,0.00051909,0.0,4511209,0 STARLINK-3663,1 51976U 22025W   24275.57395196  .00051909  00000-0  31852-2 0  9999,2 51976  53.2162 231.7682 0001338 118.9731 241.1395 15.09641088141949,2022-025W,51976,6915.433,95.387,538.223,536.373,0
GENERATED VIA SPACETRACK.ORG API,18 SPCS,51976,STARLINK-3663,PAYLOAD,U,22025W,2024-10-02 04:04:29,114688,15.09706583,0.0001224,53.2161,229.0896,126.3009,233.8096,0,999,14203,0.003493,0.00057098,0.0,4512136,0 STARLINK-3663,1 51976U 22025W   24276.16978142  .00057098  00000-0  34930-2 0  9998,2 51976  53.2161 229.0896 0001224 126.3009 233.8096 15.09706583142039,2022-025W,51976,6915.233,95.383,537.944,536.251,0
GENERATED VIA SPACETRACK.ORG API,18 SPCS,51976,STARLINK-3663,PAYLOAD,U,22025W,2024-10-02 21:33:05,819328,15.09788677,0.0001206,53.2156,225.8171,133.8016,226.3077,0,999,14325,0.0045984,0.00075628,0.0,4512402,0 STARLINK-3663,1 51976U 22025W   24276.89798402  .00075628  00000-0  45984-2 0  9997,2 51976  53.2156 225.8171 0001206 133.8016 226.3077 15.09788677143259,2022-025W,51976,6914.982,95.378,537.681,536.013,0
GENERATED VIA SPACETRACK.ORG API,18 SPCS,51976,STARLINK-3663,PAYLOAD,U,22025W,2024-10-03 13:26:19,572864,15.09863781,0.0001324,53.2156,222.8414,141.5746,218.5341,0,999,14224,0.0034388,0.00056447,0.0,4512888,0 STARLINK-3663,1 51976U 22025W   24277.55994876  .00056447  00000-0  34388-2 0  9998,2 51976  53.2156 222.8414 0001324 141.5746 218.5341 15.09863781142248,2022-025W,51976,6914.753,95.373,537.533,535.702,0
GENERATED VIA SPACETRACK.ORG API,18 SPCS,51976,STARLINK-3663,PAYLOAD,U,22025W,2024-10-03 13:26:19,572864,15.09863781,0.0001324,53.2156,222.8414,141.5746,218.5341,0,999,14335,0.0034388,0.00056447,0.0,4513441,0 STARLINK-3663,1 51976U 22025W   24277.55994876  .00056447  00000-0  34388-2 0  9998,2 51976  53.2156 222.8414 0001324 141.5746 218.5341 15.09863781143351,2022-025W,51976,6914.753,95.373,537.533,535.702,0
GENERATED VIA SPACETRACK.ORG API,18 SPCS,51976,STARLINK-3663,PAYLOAD,U,22025W,2024-10-04 05:19:30,43200,15.0996016,0.0001331,53.2154,219.8642,148.7112,211.396,0,999,14345,0.0039512,0.00065154,0.0,4513757,0 STARLINK-3663,1 51976U 22025W   24278.22187550  .00065154  00000-0  39512-2 0  9995,2 51976  53.2154 219.8642 0001331 148.7112 211.3960 15.09960160143450,2022-025W,51976,6914.459,95.367,537.244,535.403,0
GENERATED VIA SPACETRACK.ORG API,18 SPCS,51976,STARLINK-3663,PAYLOAD,U,22025W,2024-10-04 13:16:03,807840,15.10016262,0.0001282,53.2152,218.3767,150.4092,209.6974,0,999,14239,0.0043776,0.00072403,0.0,4514132,0 STARLINK-3663,1 51976U 22025W   24278.55282185  .00072403  00000-0  43776-2 0  9993,2 51976  53.2152 218.3767 0001282 150.4092 209.6974 15.10016262142396,2022-025W,51976,6914.287,95.363,537.039,535.266,0
GENERATED VIA SPACETRACK.ORG API,18 SPCS,51976,STARLINK-3663,PAYLOAD,U,22025W,2024-10-04 13:16:03,807840,15.10016262,0.0001282,53.2152,218.3767,150.4092,209.6974,0,999,14350,0.0043776,0.00072403,0.0,4514385,0 STARLINK-3663,1 51976U 22025W   24278.55282185  .00072403  00000-0  43776-2 0  9993,2 51976  53.2152 218.3767 0001282 150.4092 209.6974 15.10016262143500,2022-025W,51976,6914.287,95.363,537.039,535.266,0
GENERATED VIA SPACETRACK.ORG API,18 SPCS,51976,STARLINK-3663,PAYLOAD,U,22025W,2024-10-05 05:09:08,28864,15.10133755,0.0001364,53.2146,215.3994,160.6903,199.4142,0,999,14360,0.0051258,0.00085257,0.0,4514737,0 STARLINK-3663,1 51976U 22025W   24279.21467626  .00085257  00000-0  51258-2 0  9997,2 51976  53.2146 215.3994 0001364 160.6903 199.4142 15.10133755143608,2022-025W,51976,6913.929,95.356,536.737,534.851,0
GENERATED VIA SPACETRACK.ORG API,18 SPCS,51976,STARLINK-3663,PAYLOAD,U,22025W,2024-10-05 13:05:38,723712,15.10179563,0.0001318,53.2147,213.9104,160.3825,199.7219,0,999,14254,0.004679,0.00077817,0.0,4515143,0 STARLINK-3663,1 51976U 22025W   24279.54558708  .00077817  00000-0  46790-2 0  9993,2 51976  53.2147 213.9104 0001318 160.3825 199.7219 15.10179563142542,2022-025W,51976,6913.789,95.353,536.565,534.743,0
GENERATED VIA SPACETRACK.ORG API,18 SPCS,51976,STARLINK-3663,PAYLOAD,U,22025W,2024-10-05 13:05:38,723712,15.10179563,0.0001318,53.2147,213.9104,160.3825,199.7219,0,999,14365,0.004679,0.00077817,0.0,4515403,0 STARLINK-3663,1 51976U 22025W   24279.54558708  .00077817  00000-0  46790-2 0  9993,2 51976  53.2147 213.9104 0001318 160.3825 199.7219 15.10179563143655,2022-025W,51976,6913.789,95.353,536.565,534.743,0
GENERATED VIA SPACETRACK.ORG API,18 SPCS,51976,STARLINK-3663,PAYLOAD,U,22025W,2024-10-06 12:55:05,594880,15.10314139,0.0001346,53.2155,209.4442,160.2682,199.8363,0,999,14380,0.0040783,0.00067947,0.0,4516164,0 STARLINK-3663,1 51976U 22025W   24280.53825920  .00067947  00000-0  40783-2 0  9996,2 51976  53.2155 209.4442 0001346 160.2682 199.8363 15.10314139143808,2022-025W,51976,6913.378,95.344,536.174,534.313,0
GENERATED VIA SPACETRACK.ORG API,18 SPCS,51976,STARLINK-3663,PAYLOAD,U,22025W,2024-10-06 12:55:05,594880,15.10314139,0.0001346,53.2155,209.4442,160.2682,199.8363,0,999,14269,0.0040783,0.00067947,0.0,4516175,0 STARLINK-3663,1 51976U 22025W   24280.53825920  .00067947  00000-0  40783-2 0  9996,2 51976  53.2155 209.4442 0001346 160.2682 199.8363 15.10314139142694,2022-025W,51976,6913.378,95.344,536.174,534.313,0
GENERATED VIA SPACETRACK.ORG API,18 SPCS,51976,STARLINK-3663,PAYLOAD,U,22025W,2024-10-06 19:16:15,505536,15.1034833,0.0001356,53.2159,208.2528,161.5404,198.5638,0,999,14273,0.0041934,0.00069959,0.0,4516522,0 STARLINK-3663,1 51976U 22025W   24280.80295724  .00069959  00000-0  41934-2 0  9993,2 51976  53.2159 208.2528 0001356 161.5404 198.5638 15.10348330142733,2022-025W,51976,6913.274,95.342,536.076,534.201,0
GENERATED VIA SPACETRACK.ORG API,18 SPCS,51976,STARLINK-3663,PAYLOAD,U,22025W,2024-10-07 04:47:59,94528,15.10422999,0.0001465,53.2158,206.4655,162.7535,197.3508,0,999,14390,0.0056056,0.0009413,0.0,4516818,0 STARLINK-3663,1 51976U 22025W   24281.19998952  .00094130  00000-0  56056-2 0  9999,2 51976  53.2158 206.4655 0001465 162.7535 197.3508 15.10422999143909,2022-025W,51976,6913.046,95.338,535.924,533.898,0
GENERATED VIA SPACETRACK.ORG API,18 SPCS,51976,STARLINK-3663,PAYLOAD,U,22025W,2024-10-07 12:44:24,555264,15.10457469,0.0001292,53.2147,204.9778,157.8275,202.2774,0,999,14395,0.0042831,0.00071695,0.0,4517203,0 STARLINK-3663,1 51976U 22025W   24281.53083976  .00071695  00000-0  42831-2 0  9995,2 51976  53.2147 204.9778 0001292 157.8275 202.2774 15.10457469143956,2022-025W,51976,6912.941,95.335,535.699,533.913,0
GENERATED VIA SPACETRACK.ORG API,18 SPCS,51976,STARLINK-3663,PAYLOAD,U,22025W,2024-10-07 12:44:24,555264,15.10457469,0.0001292,53.2147,204.9778,157.8275,202.2774,0,999,14284,0.0042831,0.00071695,0.0,4517222,0 STARLINK-3663,1 51976U 22025W   24281.53083976  .00071695  00000-0  42831-2 0  9995,2 51976  53.2147 204.9778 0001292 157.8275 202.2774 15.10457469142843,2022-025W,51976,6912.941,95.335,535.699,533.913,0
